$$SOE
2461302.500000000, A.D. 2026-Sep-19 00:00:00.0000, 5.441832350711410E+09, -2.937695204999732E+09, 1.485249079451702E+08,
2461309.500000000, A.D. 2026-Sep-26 00:00:00.0000, 5.443075170627070E+09, -2.935187076136433E+09, 1.491238046627929E+08,
2461316.500000000, A.D. 2026-Oct-03 00:00:00.0000, 5.444316898041916E+09, -2.932678398011509E+09, 1.497226708664321E+08,
2461323.500000000, A.D. 2026-Oct-10 00:00:00.0000, 5.445557532358991E+09, -2.930169173233019E+09, 1.503215064693017E+08,
2461330.500000000, A.D. 2026-Oct-17 00:00:00.0000, 5.446797073362641E+09, -2.927659404544228E+09, 1.509203113607935E+08,
2461337.500000000, A.D. 2026-Oct-24 00:00:00.0000, 5.448035521156673E+09, -2.925149094850555E+09, 1.515190854042864E+08,
2461344.500000000, A.D. 2026-Oct-31 00:00:00.0000, 5.449272876190729E+09, -2.922638247409257E+09, 1.521178284129189E+08,
2461351.500000000, A.D. 2026-Nov-07 00:00:00.0000, 5.450509139713924E+09, -2.920126866107746E+09, 1.527165400784452E+08,
2461358.500000000, A.D. 2026-Nov-14 00:00:00.0000, 5.451744314856658E+09, -2.917614954943099E+09, 1.533152199074763E+08,
2461365.500000000, A.D. 2026-Nov-21 00:00:00.0000, 5.452978406528811E+09, -2.915102516020940E+09, 1.539138673872323E+08,
2461372.500000000, A.D. 2026-Nov-28 00:00:00.0000, 5.454211419136261E+09, -2.912589549081685E+09, 1.545124822267780E+08,
2461379.500000000, A.D. 2026-Dec-05 00:00:00.0000, 5.455443355735248E+09, -2.910076053210534E+09, 1.551110642884220E+08,
2461386.500000000, A.D. 2026-Dec-12 00:00:00.0000, 5.456674218789493E+09, -2.907562027620207E+09, 1.557096134486740E+08,
2461393.500000000, A.D. 2026-Dec-19 00:00:00.0000, 5.457904010642838E+09, -2.905047471499994E+09, 1.563081295626447E+08,
2461400.500000000, A.D. 2026-Dec-26 00:00:00.0000, 5.459132733564968E+09, -2.902532383799205E+09, 1.569066124742292E+08,
2461407.500000000, A.D. 2027-Jan-02 00:00:00.0000, 5.460360389645763E+09, -2.900016763136041E+09, 1.575050620313454E+08,
2461414.500000000, A.D. 2027-Jan-09 00:00:00.0000, 5.461586980654660E+09, -2.897500607811910E+09, 1.581034780972750E+08,
2461421.500000000, A.D. 2027-Jan-16 00:00:00.0000, 5.462812507899264E+09, -2.894983915922560E+09, 1.587018605556591E+08,
2461428.500000000, A.D. 2027-Jan-23 00:00:00.0000, 5.464036972127828E+09, -2.892466685605885E+09, 1.593002093017148E+08,
2461435.500000000, A.D. 2027-Jan-30 00:00:00.0000, 5.465260373661707E+09, -2.889948915474367E+09, 1.598985241985171E+08,
2461442.500000000, A.D. 2027-Feb-06 00:00:00.0000, 5.466482713180873E+09, -2.887430604892267E+09, 1.604968049870861E+08,
2461449.500000000, A.D. 2027-Feb-13 00:00:00.0000, 5.467703992700624E+09, -2.884911752878046E+09, 1.610950512920442E+08,
2461456.500000000, A.D. 2027-Feb-20 00:00:00.0000, 5.468924214374310E+09, -2.882392356423078E+09, 1.616932628748285E+08,
2461463.500000000, A.D. 2027-Feb-27 00:00:00.0000, 5.470143378516990E+09, -2.879872411440408E+09, 1.622914397436078E+08,
2461470.500000000, A.D. 2027-Mar-06 00:00:00.0000, 5.471361483867586E+09, -2.877351914420965E+09, 1.628895819999977E+08,
2461477.500000000, A.D. 2027-Mar-13 00:00:00.0000, 5.472578528488940E+09, -2.874830862747800E+09, 1.634876897366436E+08,
2461484.500000000, A.D. 2027-Mar-20 00:00:00.0000, 5.473794510176222E+09, -2.872309254502976E+09, 1.640857630208687E+08,
2461491.500000000, A.D. 2027-Mar-27 00:00:00.0000, 5.475009426575679E+09, -2.869787088316059E+09, 1.646838019008549E+08,
2461498.500000000, A.D. 2027-Apr-03 00:00:00.0000, 5.476223275216590E+09, -2.867264363301954E+09, 1.652818064117390E+08,
2461505.500000000, A.D. 2027-Apr-10 00:00:00.0000, 5.477436053517694E+09, -2.864741079065003E+09, 1.658797765778131E+08,
2461512.500000000, A.D. 2027-Apr-17 00:00:00.0000, 5.478647758790148E+09, -2.862217235783676E+09, 1.664777124075975E+08,
2461519.500000000, A.D. 2027-Apr-24 00:00:00.0000, 5.479858388316236E+09, -2.859692834438005E+09, 1.670756138694049E+08,
2461526.500000000, A.D. 2027-May-01 00:00:00.0000, 5.481067939803464E+09, -2.857167877151954E+09, 1.676734808221905E+08,
2461533.500000000, A.D. 2027-May-08 00:00:00.0000, 5.482276412521446E+09, -2.854642366902327E+09, 1.682713129346627E+08,
2461540.500000000, A.D. 2027-May-15 00:00:00.0000, 5.483483807624671E+09, -2.852116305640785E+09, 1.688691098078805E+08,
2461547.500000000, A.D. 2027-May-22 00:00:00.0000, 5.484690126097328E+09, -2.849589693420575E+09, 1.694668712330078E+08,
2461554.500000000, A.D. 2027-May-29 00:00:00.0000, 5.485895367676112E+09, -2.847062529996216E+09, 1.700645971565078E+08,
2461561.500000000, A.D. 2027-Jun-05 00:00:00.0000, 5.487099531635810E+09, -2.844534815764408E+09, 1.706622875276487E+08,
2461568.500000000, A.D. 2027-Jun-12 00:00:00.0000, 5.488302617430189E+09, -2.842006551614357E+09, 1.712599422478483E+08,
2461575.500000000, A.D. 2027-Jun-19 00:00:00.0000, 5.489504624857140E+09, -2.839477738622538E+09, 1.718575611759436E+08,
2461582.500000000, A.D. 2027-Jun-26 00:00:00.0000, 5.490705554027485E+09, -2.836948377853197E+09, 1.724551441425890E+08,
2461589.500000000, A.D. 2027-Jul-03 00:00:00.0000, 5.491905405269606E+09, -2.834418470256310E+09, 1.730526909625530E+08,
2461596.500000000, A.D. 2027-Jul-10 00:00:00.0000, 5.493104179006698E+09, -2.831888016654261E+09, 1.736502014424855E+08,
2461603.500000000, A.D. 2027-Jul-17 00:00:00.0000, 5.494301875643046E+09, -2.829357017856112E+09, 1.742476753779005E+08,
2461610.500000000, A.D. 2027-Jul-24 00:00:00.0000, 5.495498495615688E+09, -2.826825474962257E+09, 1.748451125201331E+08,
2461617.500000000, A.D. 2027-Jul-31 00:00:00.0000, 5.496694040022961E+09, -2.824293389623969E+09, 1.754425124950206E+08,
2461624.500000000, A.D. 2027-Aug-07 00:00:00.0000, 5.497888511629154E+09, -2.821760763106077E+09, 1.760398747860097E+08,
2461631.500000000, A.D. 2027-Aug-14 00:00:00.0000, 5.499081913944189E+09, -2.819227594406120E+09, 1.766371989721578E+08,
2461638.500000000, A.D. 2027-Aug-21 00:00:00.0000, 5.500274248996514E+09, -2.816693880794144E+09, 1.772344848894280E+08,
2461645.500000000, A.D. 2027-Aug-28 00:00:00.0000, 5.501465517230298E+09, -2.814159619569913E+09, 1.778317324988958E+08,
2461652.500000000, A.D. 2027-Sep-04 00:00:00.0000, 5.502655718345767E+09, -2.811624808535251E+09, 1.784289417745690E+08,
2461659.500000000, A.D. 2027-Sep-11 00:00:00.0000, 5.503844851687367E+09, -2.809089445842804E+09, 1.790261126845582E+08,
2461666.500000000, A.D. 2027-Sep-18 00:00:00.0000, 5.505032916312945E+09, -2.806553529871299E+09, 1.796232451999941E+08,
2461673.500000000, A.D. 2027-Sep-25 00:00:00.0000, 5.506219910972806E+09, -2.804017059204702E+09, 1.802203393041013E+08,
2461680.500000000, A.D. 2027-Oct-02 00:00:00.0000, 5.507405834073698E+09, -2.801480032687366E+09, 1.808173949965268E+08,
2461687.500000000, A.D. 2027-Oct-09 00:00:00.0000, 5.508590683650280E+09, -2.798942449559297E+09, 1.814144122902445E+08,
2461694.500000000, A.D. 2027-Oct-16 00:00:00.0000, 5.509774457407295E+09, -2.796404309725977E+09, 1.820113911905277E+08,
2461701.500000000, A.D. 2027-Oct-23 00:00:00.0000, 5.510957153092479E+09, -2.793865614168047E+09, 1.826083316315047E+08,
2461708.500000000, A.D. 2027-Oct-30 00:00:00.0000, 5.512138769575060E+09, -2.791326364880179E+09, 1.832052333856672E+08,
2461715.500000000, A.D. 2027-Nov-06 00:00:00.0000, 5.513319307466497E+09, -2.788786563210703E+09, 1.838020961451210E+08,
2461722.500000000, A.D. 2027-Nov-13 00:00:00.0000, 5.514498767298145E+09, -2.786246208677982E+09, 1.843989197869490E+08,
2461729.500000000, A.D. 2027-Nov-20 00:00:00.0000, 5.515677148157707E+09, -2.783705300449222E+09, 1.849957043778726E+08,
2461736.500000000, A.D. 2027-Nov-27 00:00:00.0000, 5.516854448402122E+09, -2.781163838517170E+09, 1.855924500121565E+08,
2461743.500000000, A.D. 2027-Dec-04 00:00:00.0000, 5.518030666423325E+09, -2.778621823660642E+09, 1.861891567430649E+08,
2461750.500000000, A.D. 2027-Dec-11 00:00:00.0000, 5.519205800916308E+09, -2.776079257152812E+09, 1.867858245796435E+08,
2461757.500000000, A.D. 2027-Dec-18 00:00:00.0000, 5.520379850924484E+09, -2.773536140556254E+09, 1.873824534959770E+08,
2461764.500000000, A.D. 2027-Dec-25 00:00:00.0000, 5.521552815814313E+09, -2.770992475606767E+09, 1.879790434388793E+08,
2461771.500000000, A.D. 2028-Jan-01 00:00:00.0000, 5.522724695220635E+09, -2.768448264171344E+09, 1.885755943315318E+08,
$$EOE